     3.01           N: GNSS NAV DATA    R: GLONASS          RINEX VERSION / TYPE
CRU                 ComNav Technology   20191128 094331 LCL PGM / RUN BY / DATE 
GLUT  0.0000000000D+00 0.000000000D+00      0    0          TIME SYSTEM CORR
GLGP  0.0000000000D+00 0.000000000D+00      0    0          TIME SYSTEM CORR
    18                                                      LEAP SECONDS
                                                            END OF HEADER
R05 2019 11 27 13 15  0 4.017818719149D-05 9.094947017729D-13 4.680000000000D+04
     1.345056152344D+04 1.034604072571D+00-9.313225746155D-10 0.000000000000D+00
     9.709528320313D+03 2.445219039917D+00-9.313225746155D-10 1.000000000000D+00
     1.936938037109D+04-1.946352005005D+00-2.793967723846D-09 0.000000000000D+00
R06 2019 11 27 13 15  0 1.664580777287D-04 0.000000000000D+00 4.680000000000D+04
     7.240158691406D+03 1.094959259033D+00-9.313225746155D-10 0.000000000000D+00
    -1.057588964844D+04 2.815855979919D+00 9.313225746155D-10-4.000000000000D+00
     2.204035839844D+04 9.880447387695D-01-2.793967723846D-09 0.000000000000D+00
R14 2019 11 27 13 15  0 4.549138247967D-05 0.000000000000D+00 4.680000000000D+04
    -2.395999023438D+03-3.107361793518D+00-3.725290298462D-09 0.000000000000D+00
     1.076170751953D+04-4.963903427124D-01 0.000000000000D+00-7.000000000000D+00
     2.301797705078D+04-9.242916107178D-02-9.313225746155D-10 0.000000000000D+00
R15 2019 11 27 13 15  0 1.049116253853D-04 0.000000000000D+00 4.680000000000D+04
     1.582096435547D+04-2.265900611877D+00 0.000000000000D+00 0.000000000000D+00
     1.068977783203D+04-4.836492538452D-01-1.862645149231D-09 0.000000000000D+00
     1.693642626953D+04 2.425764083862D+00-2.793967723846D-09 0.000000000000D+00
R16 2019 11 27 13 15  0-6.612390279770D-08-9.094947017729D-13 4.680000000000D+04
     2.514994091797D+04-6.032752990723D-02 4.656612873077D-09 0.000000000000D+00
     3.803339843750D+03-1.446819305420D-01-1.862645149231D-09-1.000000000000D+00
     5.638964843750D+02 3.569436073303D+00-2.793967723846D-09 0.000000000000D+00
R21 2019 11 27 13 15  0-8.792430162430D-05-2.728484105319D-12 4.680000000000D+04
     1.054695312500D+04 7.882061004639D-01 1.862645149231D-09 0.000000000000D+00
    -2.052932519531D+04-1.274674415588D+00 1.862645149231D-09 4.000000000000D+00
     1.082942285156D+04-3.188353538513D+00-2.793967723846D-09 0.000000000000D+00
R22 2019 11 27 13 15  0-0.000000000000D+00 0.000000000000D+00 4.680000000000D+04
    -3.866264160156D+03 1.932756423950D+00-1.862645149231D-09 1.000000000000D+00
    -1.121302636719D+04-2.418927192688D+00 1.862645149231D-09-3.000000000000D+00
     2.260778710938D+04-8.591737747192D-01-9.313225746155D-10 0.000000000000D+00
R23 2019 11 27 13 15  0 2.694996073842D-04 1.818989403546D-12 4.725000000000D+04
    -1.614605029297D+04 1.750942230225D+00-5.587935447693D-09 0.000000000000D+00
     6.277941894531D+03-1.883959770203D+00 9.313225746155D-10 3.000000000000D+00
     1.872290869141D+04 2.140555381775D+00 0.000000000000D+00 0.000000000000D+00
R07 2019 11 27 13 15  0-2.998020499945D-05 0.000000000000D+00 4.803000000000D+04
    -2.690503417969D+03 4.315185546875D-01 0.000000000000D+00 0.000000000000D+00
    -2.260237597656D+04 1.526201248169D+00 2.793967723846D-09 5.000000000000D+00
     1.158320019531D+04 3.081233978271D+00-9.313225746155D-10 0.000000000000D+00
R05 2019 11 27 13 45  0 4.017911851406D-05 9.094947017729D-13 4.860000000000D+04
     1.541266064453D+04 1.104535102844D+00-9.313225746155D-10 0.000000000000D+00
     1.352020166016D+04 1.764315605164D+00-1.862645149231D-09 1.000000000000D+00
     1.516189941406D+04-2.698299407959D+00-1.862645149231D-09 0.000000000000D+00
R06 2019 11 27 13 45  0 1.664590090513D-04 0.000000000000D+00 4.860000000000D+04
     9.634131347656D+03 1.548074722290D+00-9.313225746155D-10 0.000000000000D+00
    -5.534069335938D+03 2.737914085388D+00 0.000000000000D+00-4.000000000000D+00
     2.294256542969D+04 7.802009582520D-03-2.793967723846D-09 0.000000000000D+00
R14 2019 11 27 13 45  0 4.549324512482D-05 0.000000000000D+00 4.860000000000D+04
    -7.941636230469D+03-3.003251075745D+00-4.656612873077D-09 0.000000000000D+00
     1.028193505859D+04-3.859043121338D-02 9.313225746155D-10-7.000000000000D+00
     2.196548632813D+04-1.069472312927D+00 0.000000000000D+00 0.000000000000D+00
R15 2019 11 27 13 45  0 1.049116253853D-04 0.000000000000D+00 4.860000000000D+04
     1.121622998047D+04-2.810357093811D+00-1.862645149231D-09 0.000000000000D+00
     1.008669531250D+04-1.591215133667D-01-9.313225746155D-10 0.000000000000D+00
     2.059304052734D+04 1.610890388489D+00-1.862645149231D-09 0.000000000000D+00
R16 2019 11 27 13 45  0-6.891787052155D-08-9.094947017729D-13 4.860000000000D+04
     2.423860595703D+04-9.467372894287D-01 1.862645149231D-09 0.000000000000D+00
     3.514105468750D+03-1.361427307129D-01-2.793967723846D-09-1.000000000000D+00
     6.883220703125D+03 3.406068801880D+00-3.725290298462D-09 0.000000000000D+00
R22 2019 11 27 13 45  0-0.000000000000D+00 0.000000000000D+00 4.860000000000D+04
    -8.794941406250D+02 1.369731903076D+00-9.313225746155D-10 1.000000000000D+00
    -1.559913671875D+04-2.405439376831D+00 1.862645149231D-09-3.000000000000D+00
     2.021012695313D+04-1.787398338318D+00-1.862645149231D-09 0.000000000000D+00
R23 2019 11 27 13 45  0 2.695042639971D-04 1.818989403546D-12 4.878000000000D+04
    -1.303265478516D+04 1.664479255676D+00-4.656612873077D-09 0.000000000000D+00
     2.321760253906D+03-2.485767364502D+00 1.862645149231D-09 3.000000000000D+00
     2.180235302734D+04 1.258822441101D+00 0.000000000000D+00 0.000000000000D+00
R07 2019 11 27 13 45  0-2.998020499945D-05 0.000000000000D+00 4.929000000000D+04
    -1.436144531250D+03 9.781112670898D-01 0.000000000000D+00 0.000000000000D+00
    -1.934725341797D+04 2.048365592957D+00 1.862645149231D-09 5.000000000000D+00
     1.661189501953D+04 2.470084190369D+00-1.862645149231D-09 0.000000000000D+00
R21 2019 11 27 13 45  0-8.792895823717D-05-2.728484105319D-12 4.953000000000D+04
     1.137616064453D+04 1.549797058105D-01 3.725290298462D-09 0.000000000000D+00
    -2.231351464844D+04-6.698484420776D-01 9.313225746155D-10 4.000000000000D+00
     4.745248046875D+03-3.527882575989D+00-2.793967723846D-09 0.000000000000D+00
R05 2019 11 27 14 15  0 4.018004983664D-05 9.094947017729D-13 5.040000000000D+04
     1.727047265625D+04 9.152956008911D-01-9.313225746155D-10 0.000000000000D+00
     1.600590332031D+04 9.918508529663D-01-2.793967723846D-09 1.000000000000D+00
     9.780978027344D+03-3.241662979126D+00-9.313225746155D-10 0.000000000000D+00
R06 2019 11 27 14 15  0 1.664599403739D-04 0.000000000000D+00 5.040000000000D+04
     1.272279248047D+04 1.851231575012D+00-9.313225746155D-10 0.000000000000D+00
    -8.798603515625D+02 2.393904685974D+00 0.000000000000D+00-4.000000000000D+00
     2.206779687500D+04-9.735126495361D-01-2.793967723846D-09 0.000000000000D+00
R07 2019 11 27 14 15  0-2.998020499945D-05 0.000000000000D+00 5.040000000000D+04
     8.565703125000D+02 1.567435264587D+00 0.000000000000D+00 0.000000000000D+00
    -1.539331933594D+04 2.296920776367D+00 1.862645149231D-09 5.000000000000D+00
     2.036109179688D+04 1.668736457825D+00-1.862645149231D-09 0.000000000000D+00
R14 2019 11 27 14 15  0 4.549417644739D-05 0.000000000000D+00 5.040000000000D+04
    -1.303026074219D+04-2.604911804199D+00-4.656612873077D-09 0.000000000000D+00
     1.058403906250D+04 3.550500869751D-01 1.862645149231D-09-7.000000000000D+00
     1.921733398438D+04-1.964296340942D+00 9.313225746155D-10 0.000000000000D+00
R15 2019 11 27 14 15  0 1.049125567079D-04 0.000000000000D+00 5.040000000000D+04
     5.867303710938D+03-3.083491325378D+00-2.793967723846D-09 0.000000000000D+00
     1.018803027344D+04 2.831640243530D-01 0.000000000000D+00 0.000000000000D+00
     2.266112890625D+04 6.721601486206D-01-9.313225746155D-10 0.000000000000D+00
R16 2019 11 27 14 15  0-7.078051567078D-08-9.094947017729D-13 5.040000000000D+04
     2.179649072266D+04-1.742276191711D+00 0.000000000000D+00 0.000000000000D+00
     3.452368164063D+03 1.028289794922D-01-1.862645149231D-09-1.000000000000D+00
     1.266609960938D+04 2.977339744568D+00-2.793967723846D-09 0.000000000000D+00
R22 2019 11 27 14 15  0-3.148801624775D-06-9.094947017729D-13 5.040000000000D+04
     1.040881835938D+03 7.669649124146D-01 9.313225746155D-10 1.000000000000D+00
    -1.969290722656D+04-2.094043731689D+00 1.862645149231D-09-3.000000000000D+00
     1.625669238281D+04-2.576756477356D+00-1.862645149231D-09 0.000000000000D+00
R23 2019 11 27 14 15  0 2.695079892874D-04 1.818989403546D-12 5.040000000000D+04
    -1.029436865234D+04 1.345226287842D+00-3.725290298462D-09 0.000000000000D+00
    -2.547674316406D+03-2.883330345154D+00 2.793967723846D-09 3.000000000000D+00
     2.319607519531D+04 2.796859741211D-01 0.000000000000D+00 0.000000000000D+00
